ORBCOMM FM103           
1 40091U 14040F   25011.39194436  .00001239  00000+0  30563-3 0  9995
2 40091  47.0065  38.0435 0002948 284.4961  75.5597 14.57680189541229
ORBCOMM FM114           
1 41179U 15081A   25011.89897408  .00001281  00000+0  31447-3 0  9992
2 41179  47.0035 304.8011 0002444 345.7785  14.3031 14.57748624481668
ORBCOMM FM119           
1 41180U 15081B   25011.87874202  .00001008  00000+0  25567-3 0  9992
2 41180  46.9988 214.1464 0000624  69.3397 290.7555 14.57655510482917
ORBCOMM FM105           
1 41181U 15081C   25011.82921020  .00000451  00000+0  17300-3 0  9996
2 41181  46.9997 204.2538 0001686 322.8322  37.2441 14.44964132478130
ORBCOMM FM110           
1 41182U 15081D   25011.87435831  .00001874  00000+0  44219-3 0  9991
2 41182  47.0020 304.2849 0001034 146.5862 213.5089 14.57801855481534
ORBCOMM FM118           
1 41183U 15081E   25012.26680464  .00001826  00000+0  43253-3 0  9994
2 41183  47.0042 302.8327 0001506 143.3282 216.7707 14.57729162481777
ORBCOMM FM112           
1 41184U 15081F   25011.85507417  .00001094  00000+0  27446-3 0  9998
2 41184  46.9972 213.4294 0000447 358.7855   1.3029 14.57628478482852
ORBCOMM FM113           
1 41185U 15081G   25012.24360719  .00001336  00000+0  32651-3 0  9998
2 41185  46.9990 211.9018 0000615  82.9382 277.1573 14.57713194482967
