<?xml version="1.0" encoding="UTF-8"?>
<ndm xmlns:xsi="http://www.w3.org/2001/XMLSchema-instance" xsi:noNamespaceSchemaLocation="https://sanaregistry.org/r/ndmxml_unqualified/ndmxml-2.0.0-master-2.0.xsd">
<omm id="CCSDS_OMM_VERS" version="2.0">
<header><CREATION_DATE/><ORIGINATOR/></header><body><segment><metadata><OBJECT_NAME>ORBCOMM FM103</OBJECT_NAME><OBJECT_ID>2014-040F</OBJECT_ID><CENTER_NAME>EARTH</CENTER_NAME><REF_FRAME>TEME</REF_FRAME><TIME_SYSTEM>UTC</TIME_SYSTEM><MEAN_ELEMENT_THEORY>SGP4</MEAN_ELEMENT_THEORY></metadata><data><meanElements><EPOCH>2025-01-11T09:24:23.992704</EPOCH><MEAN_MOTION>14.57680189</MEAN_MOTION><ECCENTRICITY>.0002948</ECCENTRICITY><INCLINATION>47.0065</INCLINATION><RA_OF_ASC_NODE>38.0435</RA_OF_ASC_NODE><ARG_OF_PERICENTER>284.4961</ARG_OF_PERICENTER><MEAN_ANOMALY>75.5597</MEAN_ANOMALY></meanElements><tleParameters><EPHEMERIS_TYPE>0</EPHEMERIS_TYPE><CLASSIFICATION_TYPE>U</CLASSIFICATION_TYPE><NORAD_CAT_ID>40091</NORAD_CAT_ID><ELEMENT_SET_NO>999</ELEMENT_SET_NO><REV_AT_EPOCH>54122</REV_AT_EPOCH><BSTAR>.30563E-3</BSTAR><MEAN_MOTION_DOT>.1239E-4</MEAN_MOTION_DOT><MEAN_MOTION_DDOT>0</MEAN_MOTION_DDOT></tleParameters></data></segment></body></omm>
<omm id="CCSDS_OMM_VERS" version="2.0">
<header><CREATION_DATE/><ORIGINATOR/></header><body><segment><metadata><OBJECT_NAME>ORBCOMM FM114</OBJECT_NAME><OBJECT_ID>2015-081A</OBJECT_ID><CENTER_NAME>EARTH</CENTER_NAME><REF_FRAME>TEME</REF_FRAME><TIME_SYSTEM>UTC</TIME_SYSTEM><MEAN_ELEMENT_THEORY>SGP4</MEAN_ELEMENT_THEORY></metadata><data><meanElements><EPOCH>2025-01-11T21:34:31.360512</EPOCH><MEAN_MOTION>14.57748624</MEAN_MOTION><ECCENTRICITY>.0002444</ECCENTRICITY><INCLINATION>47.0035</INCLINATION><RA_OF_ASC_NODE>304.8011</RA_OF_ASC_NODE><ARG_OF_PERICENTER>345.7785</ARG_OF_PERICENTER><MEAN_ANOMALY>14.3031</MEAN_ANOMALY></meanElements><tleParameters><EPHEMERIS_TYPE>0</EPHEMERIS_TYPE><CLASSIFICATION_TYPE>U</CLASSIFICATION_TYPE><NORAD_CAT_ID>41179</NORAD_CAT_ID><ELEMENT_SET_NO>999</ELEMENT_SET_NO><REV_AT_EPOCH>48166</REV_AT_EPOCH><BSTAR>.31447E-3</BSTAR><MEAN_MOTION_DOT>.1281E-4</MEAN_MOTION_DOT><MEAN_MOTION_DDOT>0</MEAN_MOTION_DDOT></tleParameters></data></segment></body></omm>
<omm id="CCSDS_OMM_VERS" version="2.0">
<header><CREATION_DATE/><ORIGINATOR/></header><body><segment><metadata><OBJECT_NAME>ORBCOMM FM119</OBJECT_NAME><OBJECT_ID>2015-081B</OBJECT_ID><CENTER_NAME>EARTH</CENTER_NAME><REF_FRAME>TEME</REF_FRAME><TIME_SYSTEM>UTC</TIME_SYSTEM><MEAN_ELEMENT_THEORY>SGP4</MEAN_ELEMENT_THEORY></metadata><data><meanElements><EPOCH>2025-01-11T21:05:23.310528</EPOCH><MEAN_MOTION>14.57655510</MEAN_MOTION><ECCENTRICITY>.0000624</ECCENTRICITY><INCLINATION>46.9988</INCLINATION><RA_OF_ASC_NODE>214.1464</RA_OF_ASC_NODE><ARG_OF_PERICENTER>69.3397</ARG_OF_PERICENTER><MEAN_ANOMALY>290.7555</MEAN_ANOMALY></meanElements><tleParameters><EPHEMERIS_TYPE>0</EPHEMERIS_TYPE><CLASSIFICATION_TYPE>U</CLASSIFICATION_TYPE><NORAD_CAT_ID>41180</NORAD_CAT_ID><ELEMENT_SET_NO>999</ELEMENT_SET_NO><REV_AT_EPOCH>48291</REV_AT_EPOCH><BSTAR>.25567E-3</BSTAR><MEAN_MOTION_DOT>.1008E-4</MEAN_MOTION_DOT><MEAN_MOTION_DDOT>0</MEAN_MOTION_DDOT></tleParameters></data></segment></body></omm>
<omm id="CCSDS_OMM_VERS" version="2.0">
<header><CREATION_DATE/><ORIGINATOR/></header><body><segment><metadata><OBJECT_NAME>ORBCOMM FM105</OBJECT_NAME><OBJECT_ID>2015-081C</OBJECT_ID><CENTER_NAME>EARTH</CENTER_NAME><REF_FRAME>TEME</REF_FRAME><TIME_SYSTEM>UTC</TIME_SYSTEM><MEAN_ELEMENT_THEORY>SGP4</MEAN_ELEMENT_THEORY></metadata><data><meanElements><EPOCH>2025-01-11T19:54:03.761280</EPOCH><MEAN_MOTION>14.44964132</MEAN_MOTION><ECCENTRICITY>.0001686</ECCENTRICITY><INCLINATION>46.9997</INCLINATION><RA_OF_ASC_NODE>204.2538</RA_OF_ASC_NODE><ARG_OF_PERICENTER>322.8322</ARG_OF_PERICENTER><MEAN_ANOMALY>37.2441</MEAN_ANOMALY></meanElements><tleParameters><EPHEMERIS_TYPE>0</EPHEMERIS_TYPE><CLASSIFICATION_TYPE>U</CLASSIFICATION_TYPE><NORAD_CAT_ID>41181</NORAD_CAT_ID><ELEMENT_SET_NO>999</ELEMENT_SET_NO><REV_AT_EPOCH>47813</REV_AT_EPOCH><BSTAR>.173E-3</BSTAR><MEAN_MOTION_DOT>.451E-5</MEAN_MOTION_DOT><MEAN_MOTION_DDOT>0</MEAN_MOTION_DDOT></tleParameters></data></segment></body></omm>
<omm id="CCSDS_OMM_VERS" version="2.0">
<header><CREATION_DATE/><ORIGINATOR/></header><body><segment><metadata><OBJECT_NAME>ORBCOMM FM110</OBJECT_NAME><OBJECT_ID>2015-081D</OBJECT_ID><CENTER_NAME>EARTH</CENTER_NAME><REF_FRAME>TEME</REF_FRAME><TIME_SYSTEM>UTC</TIME_SYSTEM><MEAN_ELEMENT_THEORY>SGP4</MEAN_ELEMENT_THEORY></metadata><data><meanElements><EPOCH>2025-01-11T20:59:04.557984</EPOCH><MEAN_MOTION>14.57801855</MEAN_MOTION><ECCENTRICITY>.0001034</ECCENTRICITY><INCLINATION>47.0020</INCLINATION><RA_OF_ASC_NODE>304.2849</RA_OF_ASC_NODE><ARG_OF_PERICENTER>146.5862</ARG_OF_PERICENTER><MEAN_ANOMALY>213.5089</MEAN_ANOMALY></meanElements><tleParameters><EPHEMERIS_TYPE>0</EPHEMERIS_TYPE><CLASSIFICATION_TYPE>U</CLASSIFICATION_TYPE><NORAD_CAT_ID>41182</NORAD_CAT_ID><ELEMENT_SET_NO>999</ELEMENT_SET_NO><REV_AT_EPOCH>48153</REV_AT_EPOCH><BSTAR>.44219E-3</BSTAR><MEAN_MOTION_DOT>.1874E-4</MEAN_MOTION_DOT><MEAN_MOTION_DDOT>0</MEAN_MOTION_DDOT></tleParameters></data></segment></body></omm>
<omm id="CCSDS_OMM_VERS" version="2.0">
<header><CREATION_DATE/><ORIGINATOR/></header><body><segment><metadata><OBJECT_NAME>ORBCOMM FM118</OBJECT_NAME><OBJECT_ID>2015-081E</OBJECT_ID><CENTER_NAME>EARTH</CENTER_NAME><REF_FRAME>TEME</REF_FRAME><TIME_SYSTEM>UTC</TIME_SYSTEM><MEAN_ELEMENT_THEORY>SGP4</MEAN_ELEMENT_THEORY></metadata><data><meanElements><EPOCH>2025-01-12T06:24:11.920896</EPOCH><MEAN_MOTION>14.57729162</MEAN_MOTION><ECCENTRICITY>.0001506</ECCENTRICITY><INCLINATION>47.0042</INCLINATION><RA_OF_ASC_NODE>302.8327</RA_OF_ASC_NODE><ARG_OF_PERICENTER>143.3282</ARG_OF_PERICENTER><MEAN_ANOMALY>216.7707</MEAN_ANOMALY></meanElements><tleParameters><EPHEMERIS_TYPE>0</EPHEMERIS_TYPE><CLASSIFICATION_TYPE>U</CLASSIFICATION_TYPE><NORAD_CAT_ID>41183</NORAD_CAT_ID><ELEMENT_SET_NO>999</ELEMENT_SET_NO><REV_AT_EPOCH>48177</REV_AT_EPOCH><BSTAR>.43253E-3</BSTAR><MEAN_MOTION_DOT>.1826E-4</MEAN_MOTION_DOT><MEAN_MOTION_DDOT>0</MEAN_MOTION_DDOT></tleParameters></data></segment></body></omm>
<omm id="CCSDS_OMM_VERS" version="2.0">
<header><CREATION_DATE/><ORIGINATOR/></header><body><segment><metadata><OBJECT_NAME>ORBCOMM FM112</OBJECT_NAME><OBJECT_ID>2015-081F</OBJECT_ID><CENTER_NAME>EARTH</CENTER_NAME><REF_FRAME>TEME</REF_FRAME><TIME_SYSTEM>UTC</TIME_SYSTEM><MEAN_ELEMENT_THEORY>SGP4</MEAN_ELEMENT_THEORY></metadata><data><meanElements><EPOCH>2025-01-11T20:31:18.408288</EPOCH><MEAN_MOTION>14.57628478</MEAN_MOTION><ECCENTRICITY>.0000447</ECCENTRICITY><INCLINATION>46.9972</INCLINATION><RA_OF_ASC_NODE>213.4294</RA_OF_ASC_NODE><ARG_OF_PERICENTER>358.7855</ARG_OF_PERICENTER><MEAN_ANOMALY>1.3029</MEAN_ANOMALY></meanElements><tleParameters><EPHEMERIS_TYPE>0</EPHEMERIS_TYPE><CLASSIFICATION_TYPE>U</CLASSIFICATION_TYPE><NORAD_CAT_ID>41184</NORAD_CAT_ID><ELEMENT_SET_NO>999</ELEMENT_SET_NO><REV_AT_EPOCH>48285</REV_AT_EPOCH><BSTAR>.27446E-3</BSTAR><MEAN_MOTION_DOT>.1094E-4</MEAN_MOTION_DOT><MEAN_MOTION_DDOT>0</MEAN_MOTION_DDOT></tleParameters></data></segment></body></omm>
<omm id="CCSDS_OMM_VERS" version="2.0">
<header><CREATION_DATE/><ORIGINATOR/></header><body><segment><metadata><OBJECT_NAME>ORBCOMM FM113</OBJECT_NAME><OBJECT_ID>2015-081G</OBJECT_ID><CENTER_NAME>EARTH</CENTER_NAME><REF_FRAME>TEME</REF_FRAME><TIME_SYSTEM>UTC</TIME_SYSTEM><MEAN_ELEMENT_THEORY>SGP4</MEAN_ELEMENT_THEORY></metadata><data><meanElements><EPOCH>2025-01-12T05:50:47.661216</EPOCH><MEAN_MOTION>14.57713194</MEAN_MOTION><ECCENTRICITY>.0000615</ECCENTRICITY><INCLINATION>46.9990</INCLINATION><RA_OF_ASC_NODE>211.9018</RA_OF_ASC_NODE><ARG_OF_PERICENTER>82.9382</ARG_OF_PERICENTER><MEAN_ANOMALY>277.1573</MEAN_ANOMALY></meanElements><tleParameters><EPHEMERIS_TYPE>0</EPHEMERIS_TYPE><CLASSIFICATION_TYPE>U</CLASSIFICATION_TYPE><NORAD_CAT_ID>41185</NORAD_CAT_ID><ELEMENT_SET_NO>999</ELEMENT_SET_NO><REV_AT_EPOCH>48296</REV_AT_EPOCH><BSTAR>.32651E-3</BSTAR><MEAN_MOTION_DOT>.1336E-4</MEAN_MOTION_DOT><MEAN_MOTION_DDOT>0</MEAN_MOTION_DDOT></tleParameters></data></segment></body></omm>

</ndm>
